[{"OBJECT_NAME":"PRAETORIAN SDA_601","OBJECT_ID":"2025-203W","EPOCH":"2026-03-09T14:36:57.334752","MEAN_MOTION":13.83485126,"ECCENTRICITY":0.0006541,"INCLINATION":81.3004,"RA_OF_ASC_NODE":103.1096,"ARG_OF_PERICENTER":109.4555,"MEAN_ANOMALY":250.7309,"EPHEMERIS_TYPE":0,"CLASSIFICATION_TYPE":"U","NORAD_CAT_ID":65585,"ELEMENT_SET_NO":999,"REV_AT_EPOCH":2491,"BSTAR":-2.5722e-5,"MEAN_MOTION_DOT":-1.6e-7,"MEAN_MOTION_DDOT":0},{"OBJECT_NAME":"FENGYUN 1C DEB","OBJECT_ID":"1999-025BVR","EPOCH":"2026-03-09T22:14:09.139488","MEAN_MOTION":14.02994851,"ECCENTRICITY":0.01101585,"INCLINATION":98.8945,"RA_OF_ASC_NODE":61.6062,"ARG_OF_PERICENTER":145.0727,"MEAN_ANOMALY":215.7731,"EPHEMERIS_TYPE":0,"CLASSIFICATION_TYPE":"U","NORAD_CAT_ID":31477,"ELEMENT_SET_NO":999,"REV_AT_EPOCH":96626,"BSTAR":9.9785715e-5,"MEAN_MOTION_DOT":1.21e-6,"MEAN_MOTION_DDOT":0}]
